STARLINK-37755          
1 69234U 26115Z   26156.66668980 -.01977463  00000+0 -13295-1 0  9997
2 69234  97.2840 173.5241 0001752  91.1920  93.7613 15.78357861  2840
TJS-24                  
1 69235U 26116A   26156.75807286 -.00000219  00000+0  00000+0 0  9995
2 69235   0.0363 244.2307 0000888 173.6477 199.5242  1.00272274   120
STARLINK-37665          
1 69238U 26117A   26156.66668980 -.02353470  15178-2 -61724-2 0  9996
2 69238  53.1584 301.5829 0001016  61.3439 135.6879 15.94369256  2313
STARLINK-37558          
1 69239U 26117B   26156.66668980 -.02418969  16041-2 -62755-2 0  9997
2 69239  53.1582 301.5724 0000885  63.7116 138.3565 15.94577801  2316
STARLINK-37680          
1 69240U 26117C   26156.66668980 -.02389111  15703-2 -61166-2 0  9994
2 69240  53.1583 301.5614 0000916  57.8377 149.5162 15.94822535  2308
STARLINK-37742          
1 69241U 26117D   26156.66668980 -.02335172  15091-2 -58550-2 0  9996
2 69241  53.1583 301.5516 0000902  53.8470 158.1694 15.95206903  2318
STARLINK-37718          
1 69242U 26117E   26156.66668980 -.02357141  15419-2 -58140-2 0  9996
2 69242  53.1583 301.5422 0000838  51.0458 165.4473 15.95511824  2305
STARLINK-37735          
1 69243U 26117F   26156.66668980 -.02437238  16437-2 -60369-2 0  9990
2 69243  53.1582 301.5346 0000847  58.3014 161.9060 15.95439299  2317
STARLINK-37757          
1 69244U 26117G   26156.66668980 -.02379896  15780-2 -57436-2 0  9997
2 69244  53.1581 301.5201 0000817  52.3365 174.7472 15.95915107  2313
STARLINK-37767          
1 69245U 26117H   26156.66668980 -.02379279  15938-2 -54639-2 0  9990
2 69245  53.1578 301.4917 0000830  62.2499 178.5883 15.96823137  2316
STARLINK-35759          
1 69246U 26117J   26156.66668980 -.02393574  16141-2 -54717-2 0  9999
2 69246  53.1577 301.4842 0000811  64.2269 180.1344 15.96907175  2360
STARLINK-37238          
1 69247U 26117K   26156.66668980 -.02292182  15001-2 -49793-2 0  9995
2 69247  53.1577 301.4625 0000793  54.9503 199.6916 15.97822151  2312
STARLINK-37412          
1 69248U 26117L   26156.66668980 -.02309334  15358-2 -48050-2 0  9994
2 69248  53.1576 301.4422 0000739  62.2409 202.3095 15.98593668  2380
STARLINK-37398          
1 69249U 26117M   26156.66668980 -.02329391  15619-2 -48461-2 0  9996
2 69249  53.1575 301.4357 0000580  62.0858 205.3914 15.98597402  2380
STARLINK-37499          
1 69250U 26117N   26156.66668980 -.02323370  15586-2 -47679-2 0  9992
2 69250  53.1575 301.4266 0000713  57.8166 214.0906 15.98839605  2385
STARLINK-37489          
1 69251U 26117P   26156.66668980 -.02336834  15817-2 -47179-2 0  9994
2 69251  53.1577 301.4129 0000700  55.2277 223.1456 15.99129344  2381
STARLINK-37434          
1 69252U 26117Q   26156.66668980 -.02267746  15014-2 -44463-2 0  9992
2 69252  53.1573 301.3999 0000708  56.5474 227.9189 15.99640767  2318
STARLINK-37368          
1 69253U 26117R   26156.66668980 -.02164186  13920-2 -39585-2 0  9990
2 69253  53.1572 301.3694 0000651  53.1669 246.0293 16.00843651  2381
STARLINK-37517          
1 69254U 26117S   26156.67653808 -.00745359  19888-3 -13004-2 0  9998
2 69254  53.1572 301.3095 0001060  95.4794 264.6359 16.01437075  1153
STARLINK-37378          
1 69255U 26117T   26156.66668980 -.02192706  14312-2 -39616-2 0  9992
2 69255  53.1572 301.3528 0000745  53.5437 253.6258 16.01057767  2314
STARLINK-37396          
1 69256U 26117U   26156.66668980 -.02216531  14697-2 -38999-2 0  9995
2 69256  53.1572 301.3366 0000683  56.2228 258.4948 16.01515121  2383
STARLINK-37508          
1 69257U 26117V   26156.66668980 -.02232809  14961-2 -38616-2 0  9992
2 69257  53.1571 301.3245 0000673  58.2120 262.1128 16.01810046  2310
STARLINK-37276          
1 69258U 26117W   26156.66668980 -.01916659  11725-2 -26129-2 0  9995
2 69258  53.1568 301.2930 0000435  44.3004 290.9727 16.05739839  2318
STARLINK-37518          
1 69259U 26117X   26156.66668980 -.01889803  11399-2 -25940-2 0  9993
2 69259  53.1567 301.2807 0000515  42.8734 298.6640 16.05626306  2327
STARLINK-37478          
1 69260U 26117Y   26156.66668980 -.01914524  11608-2 -27132-2 0  9992
2 69260  53.1569 301.2714 0000706  44.0656 301.9693 16.05108748  2328
STARLINK-37506          
1 69261U 26117Z   26156.66668980 -.01945383  11985-2 -27361-2 0  9992
2 69261  53.1566 301.2629 0000673  43.1940 306.8831 16.05235451  2320
STARLINK-37503          
1 69262U 26117AA  26156.66668980 -.01990337  12535-2 -27832-2 0  9997
2 69262  53.1567 301.2508 0000600  45.1118 310.4587 16.05334117  2325
