OBJECT_NAME,OBJECT_ID,EPOCH,MEAN_MOTION,ECCENTRICITY,INCLINATION,RA_OF_ASC_NODE,ARG_OF_PERICENTER,MEAN_ANOMALY,EPHEMERIS_TYPE,CLASSIFICATION_TYPE,NORAD_CAT_ID,ELEMENT_SET_NO,REV_AT_EPOCH,BSTAR,MEAN_MOTION_DOT,MEAN_MOTION_DDOT
STARLINK-37755,2026-115Z,2026-06-05T16:00:01.998720,15.78357861,.0001752,97.2840,173.5241,91.1920,93.7613,0,U,69234,999,284,-.13295E-1,-.1977463E-1,0
TJS-24,2026-116A,2026-06-05T18:11:37.495104,1.00272274,.0000888,0.0363,244.2307,173.6477,199.5242,0,U,69235,999,12,0,-.219E-5,0
STARLINK-37665,2026-117A,2026-06-05T16:00:01.998720,15.94369256,.0001016,53.1584,301.5829,61.3439,135.6879,0,U,69238,999,231,-.61724E-2,-.235347E-1,.15178E-2
STARLINK-37558,2026-117B,2026-06-05T16:00:01.998720,15.94577801,.0000885,53.1582,301.5724,63.7116,138.3565,0,U,69239,999,231,-.62755E-2,-.2418969E-1,.16041E-2
STARLINK-37680,2026-117C,2026-06-05T16:00:01.998720,15.94822535,.0000916,53.1583,301.5614,57.8377,149.5162,0,U,69240,999,230,-.61166E-2,-.2389111E-1,.15703E-2
STARLINK-37742,2026-117D,2026-06-05T16:00:01.998720,15.95206903,.0000902,53.1583,301.5516,53.8470,158.1694,0,U,69241,999,231,-.5855E-2,-.2335172E-1,.15091E-2
STARLINK-37718,2026-117E,2026-06-05T16:00:01.998720,15.95511824,.0000838,53.1583,301.5422,51.0458,165.4473,0,U,69242,999,230,-.5814E-2,-.2357141E-1,.15419E-2
STARLINK-37735,2026-117F,2026-06-05T16:00:01.998720,15.95439299,.0000847,53.1582,301.5346,58.3014,161.9060,0,U,69243,999,231,-.60369E-2,-.2437238E-1,.16437E-2
STARLINK-37757,2026-117G,2026-06-05T16:00:01.998720,15.95915107,.0000817,53.1581,301.5201,52.3365,174.7472,0,U,69244,999,231,-.57436E-2,-.2379896E-1,.1578E-2
STARLINK-37767,2026-117H,2026-06-05T16:00:01.998720,15.96823137,.000083,53.1578,301.4917,62.2499,178.5883,0,U,69245,999,231,-.54639E-2,-.2379279E-1,.15938E-2
STARLINK-35759,2026-117J,2026-06-05T16:00:01.998720,15.96907175,.0000811,53.1577,301.4842,64.2269,180.1344,0,U,69246,999,236,-.54717E-2,-.2393574E-1,.16141E-2
STARLINK-37238,2026-117K,2026-06-05T16:00:01.998720,15.97822151,.0000793,53.1577,301.4625,54.9503,199.6916,0,U,69247,999,231,-.49793E-2,-.2292182E-1,.15001E-2
STARLINK-37412,2026-117L,2026-06-05T16:00:01.998720,15.98593668,.0000739,53.1576,301.4422,62.2409,202.3095,0,U,69248,999,238,-.4805E-2,-.2309334E-1,.15358E-2
STARLINK-37398,2026-117M,2026-06-05T16:00:01.998720,15.98597402,.000058,53.1575,301.4357,62.0858,205.3914,0,U,69249,999,238,-.48461E-2,-.2329391E-1,.15619E-2
STARLINK-37499,2026-117N,2026-06-05T16:00:01.998720,15.98839605,.0000713,53.1575,301.4266,57.8166,214.0906,0,U,69250,999,238,-.47679E-2,-.232337E-1,.15586E-2
STARLINK-37489,2026-117P,2026-06-05T16:00:01.998720,15.99129344,.00007,53.1577,301.4129,55.2277,223.1456,0,U,69251,999,238,-.47179E-2,-.2336834E-1,.15817E-2
STARLINK-37434,2026-117Q,2026-06-05T16:00:01.998720,15.99640767,.0000708,53.1573,301.3999,56.5474,227.9189,0,U,69252,999,231,-.44463E-2,-.2267746E-1,.15014E-2
STARLINK-37368,2026-117R,2026-06-05T16:00:01.998720,16.00843651,.0000651,53.1572,301.3694,53.1669,246.0293,0,U,69253,999,238,-.39585E-2,-.2164186E-1,.1392E-2
STARLINK-37517,2026-117S,2026-06-05T16:14:12.890112,16.01437075,.000106,53.1572,301.3095,95.4794,264.6359,0,U,69254,999,115,-.13004E-2,-.745359E-2,.19888E-3
STARLINK-37378,2026-117T,2026-06-05T16:00:01.998720,16.01057767,.0000745,53.1572,301.3528,53.5437,253.6258,0,U,69255,999,231,-.39616E-2,-.2192706E-1,.14312E-2
STARLINK-37396,2026-117U,2026-06-05T16:00:01.998720,16.01515121,.0000683,53.1572,301.3366,56.2228,258.4948,0,U,69256,999,238,-.38999E-2,-.2216531E-1,.14697E-2
STARLINK-37508,2026-117V,2026-06-05T16:00:01.998720,16.01810046,.0000673,53.1571,301.3245,58.2120,262.1128,0,U,69257,999,231,-.38616E-2,-.2232809E-1,.14961E-2
STARLINK-37276,2026-117W,2026-06-05T16:00:01.998720,16.05739839,.0000435,53.1568,301.2930,44.3004,290.9727,0,U,69258,999,231,-.26129E-2,-.1916659E-1,.11725E-2
STARLINK-37518,2026-117X,2026-06-05T16:00:01.998720,16.05626306,.0000515,53.1567,301.2807,42.8734,298.6640,0,U,69259,999,232,-.2594E-2,-.1889803E-1,.11399E-2
STARLINK-37478,2026-117Y,2026-06-05T16:00:01.998720,16.05108748,.0000706,53.1569,301.2714,44.0656,301.9693,0,U,69260,999,232,-.27132E-2,-.1914524E-1,.11608E-2
STARLINK-37506,2026-117Z,2026-06-05T16:00:01.998720,16.05235451,.0000673,53.1566,301.2629,43.1940,306.8831,0,U,69261,999,232,-.27361E-2,-.1945383E-1,.11985E-2
STARLINK-37503,2026-117AA,2026-06-05T16:00:01.998720,16.05334117,.00006,53.1567,301.2508,45.1118,310.4587,0,U,69262,999,232,-.27832E-2,-.1990337E-1,.12535E-2
